satname,norad_id,inclination_deg,eccentricity,mean_motion_rev_per_day,perigee_km,apogee_km,l1,l2
STARLINK-1480,45741,53.0507,0.0001759,15.06399255,545.9956720439413,548.4320104698945,1 45741U 20038M   25307.63753434  .00000769  00000+0  70543-4 0  9990,2 45741  53.0507  82.4865 0001759  77.4907 282.6279 15.06399255297203
STARLINK-1500,45744,53.0402,0.0002295,15.27677807,481.1816673221565,484.3308173203832,1 45744U 20038Q   25307.70458337  .00028578  00000+0  10512-2 0  9991,2 45744  53.0402  60.5001 0002295 200.2952 159.7955 15.27677807297515
STARLINK-1504,45746,53.029,0.0002011,15.40468953,443.35220209166073,446.09635689827337,1 45746U 20038S   25306.51680911  .00021109  00000+0  52148-3 0  9991,2 45746  53.0290  30.4222 0002011 231.9146 128.1676 15.40468953297824
STARLINK-1506,45747,53.0596,0.0001973,15.21373378,500.33971785977155,503.0545003992338,1 45747U 20038T   25307.67394279  .00010237  00000+0  46468-3 0  9997,2 45747  53.0596  63.2903 0001973 226.0100 134.0733 15.21373378297471
STARLINK-1464,45751,53.054,0.0001436,15.06390474,546.2462696646762,548.2352381555984,1 45751U 20038X   25307.70572771  .00000654  00000+0  62827-4 0  9991,2 45751  53.0540  62.1806 0001436  84.7867 275.3286 15.06390474297491
STARLINK-1477,45754,53.0533,0.0001341,15.06868293,544.8481822251433,546.7051758738644,1 45754U 20038AA  25307.71945198  .00034408  00000+0  22885-2 0  9994,2 45754  53.0533  62.1065 0001341  41.2588 318.8502 15.06868293297499
STARLINK-1478,45755,53.053,0.0001645,15.06379879,546.133996609472,548.4124565740203,1 45755U 20038AB  25307.67256480  .00005885  00000+0  41389-3 0  9997,2 45755  53.0530  62.3293 0001645  89.0432 271.0745 15.06379879297471
STARLINK-1484,45756,53.0166,0.0002366,15.61055176,383.0078350167096,386.20796590360806,1 45756U 20038AC  25307.91670139  .00170053  00000+0  19482-2 0  9994,2 45756  53.0166 325.5537 0002366   8.4703  10.0877 15.61055176  5789
STARLINK-1493,45759,53.0529,0.0001387,15.06391374,546.2774460001847,548.198545023939,1 45759U 20038AF  25307.72783713  .00001668  00000+0  13088-3 0  9991,2 45759  53.0529  62.0816 0001387  80.5811 279.5334 15.06391374297483
STARLINK-1494,45760,53.0554,0.0002711,15.51578609,410.2756243850672,413.95729981221666,1 45760U 20038AG  25307.69281222  .00039012  00000+0  65147-3 0  9994,2 45760  53.0554  46.3219 0002711  24.5020 335.6117 15.51578609297714
STARLINK-1502,45764,53.0553,0.0001465,15.06389807,546.228230050936,548.2573663318071,1 45764U 20038AL  25307.62832429  .00000340  00000+0  41712-4 0  9997,2 45764  53.0553  62.5287 0001465  94.9269 265.1887 15.06389807297488
STARLINK-1470,45772,53.0526,0.0002945,15.18008543,509.830865164261,513.8890733791632,1 45772U 20038AU  25307.65842030  .00028024  00000+0  13712-2 0  9994,2 45772  53.0526  34.6098 0002945 264.1749  95.8909 15.18008543297879
STARLINK-1482,45773,53.0526,0.0001218,15.06390119,546.3983308027391,548.085353088637,1 45773U 20038AV  25307.59331921  .00013869  00000+0  94841-3 0  9994,2 45773  53.0526  42.6836 0001218  84.8574 275.2554 15.06390119297751
STARLINK-1496,45780,53.0544,0.0001459,15.06390618,546.2299000163566,548.2507251161633,1 45780U 20038BC  25307.69282263  .00002109  00000+0  16049-3 0  9996,2 45780  53.0544  42.2366 0001459  99.4630 260.6524 15.06390618297754
STARLINK-1497,45781,53.0392,0.0006124,15.54822193,398.51697570426495,406.8221075564543,1 45781U 20038BD  25307.77720189  .00156626  00000+0  22702-2 0  9996,2 45781  53.0392 346.0998 0006124 304.7390  55.3043 15.54822193298567
STARLINK-1510,45784,53.0321,0.0002378,15.70956412,354.5609384459158,357.76377121907353,1 45784U 20038BG  25307.91670139  .00256050  00000+0  19497-2 0  9993,2 45784  53.0321 321.2285 0002378  58.9624  72.2644 15.70956412  6002
STARLINK-1513,45786,53.0561,0.0001308,15.06395325,546.3200487114973,548.1317236425202,1 45786U 20038BJ  25306.46171919 -.00000256  00000+0  16932-5 0  9996,2 45786  53.0561  47.7675 0001308  88.5787 271.5352 15.06395325297588
STARLINK-1522,46027,53.0545,0.0001409,15.06410654,546.2031281441459,548.1546821662196,1 46027U 20055A   25307.76930676  .00005185  00000+0  36662-3 0  9996,2 46027  53.0545 331.8971 0001409  88.0115 272.1035 15.06410654289902
STARLINK-1523,46028,53.0558,0.0001433,15.06401237,546.2153648089625,548.2001686191015,1 46028U 20055B   25307.78405368  .00002886  00000+0  21254-3 0  9990,2 46028  53.0558 331.8325 0001433  89.3601 270.7552 15.06401237289928
STARLINK-1526,46029,53.0552,0.0001536,15.06402326,546.1406966489467,548.2681615359634,1 46029U 20055C   25307.77667938  .00002018  00000+0  15431-3 0  9990,2 46029  53.0552 331.8624 0001536  82.8504 277.2659 15.06402326289918
STARLINK-1555,46032,53.055,0.0001442,15.06398082,546.218800228552,548.2160724479918,1 46032U 20055F   25306.36865683  .00004496  00000+0  32051-3 0  9994,2 46032  53.0550 338.1825 0001442  98.2987 261.8165 15.06398082289706
STARLINK-1556,46033,53.0545,0.0001381,15.06408637,546.2286999235102,548.141473883913,1 46033U 20055G   25307.80985230  .00005390  00000+0  38038-3 0  9991,2 46033  53.0545 331.7151 0001381  91.5440 268.5707 15.06408637289898
STARLINK-1557,46034,53.0555,0.0001391,15.06390547,546.2772101588544,548.2038501877487,1 46034U 20055H   25306.35390970 -.00000143  00000+0  93203-5 0  9991,2 46034  53.0555 338.2502 0001391  83.1473 276.9674 15.06390547289678
STARLINK-1558,46035,53.0546,0.0001299,15.06400534,546.3103187405932,548.1095238707476,1 46035U 20055J   25306.49397869  .00009379  00000+0  64772-3 0  9997,2 46035  53.0546 337.6233 0001299  89.6638 270.4500 15.06400534289725
STARLINK-1560,46036,53.0548,0.0001448,15.06406977,546.187387145811,548.1929618955519,1 46036U 20055K   25307.80616847  .00005156  00000+0  36471-3 0  9998,2 46036  53.0548 331.7349 0001448  90.5963 269.5192 15.06406977289924
STARLINK-1567,46038,53.055,0.0001425,15.06391604,546.250424752141,548.2241564249589,1 46038U 20055M   25306.35760281  .00007083  00000+0  49401-3 0  9999,2 46038  53.0550 338.2364 0001425  85.1888 274.9263 15.06391604289692
STARLINK-1569,46039,53.0559,0.0001638,15.0640057,546.0754391632863,548.3441827785609,1 46039U 20055N   25306.36496574  .00000087  00000+0  24751-4 0  9991,2 46039  53.0559 338.2005 0001638  93.7021 266.4155 15.06400570289693
STARLINK-1582,46043,53.0539,0.0001451,15.06407954,546.1823156425844,548.1920447196717,1 46043U 20055S   25307.76562126  .00004316  00000+0  30842-3 0  9994,2 46043  53.0539 331.9138 0001451  81.2311 278.8842 15.06407954289907
